JINJUSAT-1B             
1 63210U 25052A   26068.66363707  .00019955  00000+0  68430-3 0  9998
2 63210  97.4113 325.4613 0005550  82.1930 277.9941 15.30194857 54866
STARLINK-33615          
1 63426U 25065AD  26068.80527990  .00024702  00000+0  90473-3 0  9991
2 63426  43.0001 106.7116 0001796 268.8354  91.2292 15.27559051 52857
